[{"OBJECT_NAME":"SILVERSAT","OBJECT_ID":"1998-067XV","EPOCH":"2026-04-21T10:00:08.915904","MEAN_MOTION":16.15331909,"ECCENTRICITY":0.00131383,"INCLINATION":51.6081,"RA_OF_ASC_NODE":201.2837,"ARG_OF_PERICENTER":340.8561,"MEAN_ANOMALY":19.196,"EPHEMERIS_TYPE":0,"CLASSIFICATION_TYPE":"U","NORAD_CAT_ID":66909,"ELEMENT_SET_NO":999,"REV_AT_EPOCH":2197,"BSTAR":0.0017496522,"MEAN_MOTION_DOT":0.02238858,"MEAN_MOTION_DDOT":0.0060623342},{"OBJECT_NAME":"ICOR SV","OBJECT_ID":"2026-046A","EPOCH":"2026-04-19T14:13:51.578112","MEAN_MOTION":16.29449949,"ECCENTRICITY":0.00385635,"INCLINATION":123.0635,"RA_OF_ASC_NODE":36.1737,"ARG_OF_PERICENTER":269.9104,"MEAN_ANOMALY":89.757,"EPHEMERIS_TYPE":0,"CLASSIFICATION_TYPE":"U","NORAD_CAT_ID":68127,"ELEMENT_SET_NO":999,"REV_AT_EPOCH":614,"BSTAR":0.00051213701,"MEAN_MOTION_DOT":0.02873854,"MEAN_MOTION_DDOT":1.3124062e-5},{"OBJECT_NAME":"SL-4 R/B","OBJECT_ID":"2026-061S","EPOCH":"2026-04-21T22:02:25.007136","MEAN_MOTION":16.00039927,"ECCENTRICITY":0.0014156,"INCLINATION":82.3048,"RA_OF_ASC_NODE":75.4453,"ARG_OF_PERICENTER":307.0905,"MEAN_ANOMALY":52.9078,"EPHEMERIS_TYPE":0,"CLASSIFICATION_TYPE":"U","NORAD_CAT_ID":68537,"ELEMENT_SET_NO":999,"REV_AT_EPOCH":465,"BSTAR":0.00059685,"MEAN_MOTION_DOT":0.00306768,"MEAN_MOTION_DDOT":3.7814e-5}]
